#aV2010  2 14  0  0   .00000000      96 DD+AD WGS84 FIT  NGA
## 1571       .00000000   900.00000000 55241  .0000000000000
+   32     1  2  3  4  5  6  7  8  9 10 11 12 13 14 15 16 17
+         18 19 20 21 22 23 24 25 26 27 28 29 30 31 32  0  0
+          0  0  0  0  0  0  0  0  0  0  0  0  0  0  0  0  0
+          0  0  0  0  0  0  0  0  0  0  0  0  0  0  0  0  0
+          0  0  0  0  0  0  0  0  0  0  0  0  0  0  0  0  0
++         0  0  0  0  0  0  0  0  0  0  0  0  0  0  0  0  0
++         0  0  0  0  0  0  0  0  0  0  0  0  0  0  0  0  0
++         0  0  0  0  0  0  0  0  0  0  0  0  0  0  0  0  0
++         0  0  0  0  0  0  0  0  0  0  0  0  0  0  0  0  0
++         0  0  0  0  0  0  0  0  0  0  0  0  0  0  0  0  0
%c cc cc ccc ccc cccc cccc cccc cccc ccccc ccccc ccccc ccccc
%c cc cc ccc ccc cccc cccc cccc cccc ccccc ccccc ccccc ccccc
%f  0.0000000  0.000000000  0.00000000000  0.000000000000000
%f  0.0000000  0.000000000  0.00000000000  0.000000000000000
%i    0    0    0    0      0      0      0      0         0
%i    0    0    0    0      0      0      0      0         0
/*      NGA, ST. LOUIS,MO.                                  
/*   EPHEMERIS COMPUTED FROM  3 DAYS OF DATA                
/* CCCCCCCCCCCCCCCCCCCCCCCCCCCCCCCCCCCCCCCCCCCCCCCCCCCCCCCCC
/* CCCCCCCCCCCCCCCCCCCCCCCCCCCCCCCCCCCCCCCCCCCCCCCCCCCCCCCCC
*  2010  2 14 12 45   .00000000                                                 
P  1 -16737.458559  14859.528491  14110.743514    -88.905646                    
V  1   4887.950138 -17600.126311  24273.639976      -.037586                    
P  2 -13146.080847 -22773.955767   5113.740163    226.576151                    
V  2   6381.397665   3250.991844  30111.684017       .040703                    
P  3  12246.760575  12640.556537 -20329.617577    515.671833                    
V  3 -24076.659095   7098.324705  -9923.433696       .052017                    
P  4   -929.531076 -20783.087769  16132.791755     14.778267                    
V  4  14725.640300  15200.933058  20581.674882       .091291                    
P  5  -5497.464659 -19043.970503 -17657.362465     -8.380626                    
V  5  10183.337892 -20046.399644  18555.229408       .024939                    
P  6   7778.538208  14253.411761 -20854.317963    249.584625                    
V  6 -26442.403824   5391.721638  -6006.797106      -.052381                    
P  7  15412.220836  -3840.125923 -21320.206603      2.871119                    
V  7  15901.236466  21822.037507   7414.955718      -.005113                    
P  8   6732.071928 -14700.908842 -20968.537239      3.265574                    
V  8  15369.133003  21769.300208 -10842.141922       .003788                    
P  9 -19857.007139 -14605.385906   9275.126095    106.008293                    
V  9  -6317.045183 -11224.610292 -29097.961092       .023091                    
P 10   -159.375190 -22875.500895 -13367.150761    -35.428208                    
V 10   9217.346530 -14321.407491  25076.532090      -.010306                    
P 11  23087.451165   7815.113668  10707.502223    -45.317975                    
V 11   8185.229342  12102.834629 -25499.073349      -.020658                    
P 12 -15110.816768  -2585.847145  21734.091340   -150.226056                    
V 12  10447.314181 -25384.091177   4391.276578       .047781                    
P 13  25266.583001  -5568.814237  -6161.591985    306.478896                    
V 13   7712.122997   1188.851818  31199.219410      -.001600                    
P 14 -12227.688235  13756.736306  19240.060891     11.667576                    
V 14 -24115.634862    973.508681 -16253.333207       .042851                    
P 15 -19758.147758  -8374.908582 -15699.722296   -306.575083                    
V 15  19455.258135  -4836.973838 -21763.753967       .030301                    
P 16   -358.154654  22868.303295 -13228.670631    -41.335895                    
V 16  -8948.274422  14573.709753  25595.380421      -.040153                    
P 17  10722.280660 -14734.237109  19336.642670    129.729288                    
V 17  24446.715053  -1191.438893 -14736.725625       .032047                    
P 18 -16962.923971  15882.277552 -12260.016695     48.847491                    
V 18   3665.984413 -16069.151643 -25731.849711       .026217                    
P 19  20592.018161   9038.433581 -14322.487475    -15.619660                    
V 19 -18014.983844   2912.406449 -23716.186703      -.023228                    
P 20  16733.446623  -1851.632516  20394.089644     61.315244                    
V 20  -8433.212643  24936.422857   9179.966339      -.007345                    
P 21 -13286.571470   8382.127955 -21125.134780    -40.562741                    
V 21 -16534.203422 -22148.036454    963.589554      -.024856                    
P 22 -11846.641570  23675.953504  -1347.023451    179.161964                    
V 22  -2551.322896  -3255.194964 -31185.502921      -.009127                    
P 23  26277.517550    186.257637   4835.282025    379.921949                    
V 23  -5804.699637   2958.071040  30958.268078      -.009620                    
P 24 -17371.692619    -85.545849 -19951.310320    262.338580                    
V 24 -13358.718915 -21893.635093  11921.601576       .032550                    
P 25 -15711.578659   -270.146389  21075.755990    923.139326                    
V 25   7509.812553 -26549.197787   5266.415360       .737620                    
P 26 -22327.388772   8828.725530  11278.562774    -18.496985                    
V 26 -15020.569617   -441.012330 -27635.121121      -.037084                    
P 27 -20427.639865 -15207.383806   8429.353265    126.109641                    
V 27  -4844.455242  -8621.396227 -29648.989742       .033273                    
P 28  12983.272304 -22648.830460  -3427.288391    -22.122369                    
V 28    502.256734   5693.763145 -31742.286600       .006324                    
P 29 -26042.662590   4367.894351  -2593.403583     97.918546                    
V 29  -3667.249083  -2490.536911  31552.452878       .029602                    
P 30 -16893.112194   9490.140352  17755.835691    219.467770                    
V 30   6362.035537 -22555.933126  17778.787320       .033997                    
P 31   3333.912279  21518.511008  15306.923891    -51.483819                    
V 31 -12929.753135 -14147.096275  23191.944469       .015665                    
P 32  12429.642056   9322.127031  21916.412924     95.218554                    
V 32 -12595.507884  23845.256489  -2729.609107      -.083347                    
EOF
